{
  "type": "FeatureCollection",
  "features": [
    {
      "type": "Feature",
      "properties": {
        "id": "region_west_lake_core",
        "name": "西湖湖山核心",
        "entity_kind": "water",
        "confidence": "draft",
        "color": "#62b6bd"
      },
      "geometry": {
        "type": "Polygon",
        "coordinates": [
          [
            [
              120.119,
              30.271
            ],
            [
              120.106,
              30.265
            ],
            [
              120.102,
              30.247
            ],
            [
              120.111,
              30.225
            ],
            [
              120.136,
              30.218
            ],
            [
              120.157,
              30.229
            ],
            [
              120.162,
              30.252
            ],
            [
              120.149,
              30.268
            ],
            [
              120.119,
              30.271
            ]
          ]
        ]
      }
    },
    {
      "type": "Feature",
      "properties": {
        "id": "region_lingyin_beigaofeng",
        "name": "灵隐北高峰山域",
        "entity_kind": "mountain",
        "confidence": "draft",
        "color": "#7db275"
      },
      "geometry": {
        "type": "Polygon",
        "coordinates": [
          [
            [
              120.086,
              30.271
            ],
            [
              120.066,
              30.255
            ],
            [
              120.071,
              30.228
            ],
            [
              120.098,
              30.214
            ],
            [
              120.123,
              30.229
            ],
            [
              120.122,
              30.259
            ],
            [
              120.086,
              30.271
            ]
          ]
        ]
      }
    },
    {
      "type": "Feature",
      "properties": {
        "id": "region_longjing_jiuxi",
        "name": "龙井九溪山谷",
        "entity_kind": "mountain",
        "confidence": "draft",
        "color": "#98bf70"
      },
      "geometry": {
        "type": "Polygon",
        "coordinates": [
          [
            [
              120.085,
              30.229
            ],
            [
              120.071,
              30.202
            ],
            [
              120.092,
              30.176
            ],
            [
              120.133,
              30.182
            ],
            [
              120.137,
              30.215
            ],
            [
              120.112,
              30.231
            ],
            [
              120.085,
              30.229
            ]
          ]
        ]
      }
    },
    {
      "type": "Feature",
      "properties": {
        "id": "region_wushan_yuhuang",
        "name": "吴山玉皇山域",
        "entity_kind": "mountain",
        "confidence": "draft",
        "color": "#d6ad58"
      },
      "geometry": {
        "type": "Polygon",
        "coordinates": [
          [
            [
              120.134,
              30.231
            ],
            [
              120.125,
              30.205
            ],
            [
              120.148,
              30.186
            ],
            [
              120.177,
              30.201
            ],
            [
              120.178,
              30.231
            ],
            [
              120.156,
              30.244
            ],
            [
              120.134,
              30.231
            ]
          ]
        ]
      }
    },
    {
      "type": "Feature",
      "properties": {
        "id": "region_qiantang_river",
        "name": "钱塘江山水界面",
        "entity_kind": "water",
        "confidence": "draft",
        "color": "#5aaeb7"
      },
      "geometry": {
        "type": "Polygon",
        "coordinates": [
          [
            [
              120.077,
              30.196
            ],
            [
              120.103,
              30.19
            ],
            [
              120.131,
              30.184
            ],
            [
              120.162,
              30.178
            ],
            [
              120.198,
              30.171
            ],
            [
              120.206,
              30.155
            ],
            [
              120.143,
              30.158
            ],
            [
              120.094,
              30.171
            ],
            [
              120.061,
              30.184
            ],
            [
              120.077,
              30.196
            ]
          ]
        ]
      }
    }
  ]
}
